*******************************************************************************
Ephemeris / WWW_USER Thu Dec  5 18:35:00 2024 Pasadena, USA      / Horizons    
*******************************************************************************
Target body name: Titan (606)                     {source: sat441l}
Center body name: Earth (399)                     {source: DE441}
Center-site name: Mauna Kea
*******************************************************************************
Start time      : A.D. 2018-Nov-08 03:54:00.0000 UT      
Stop  time      : A.D. 2018-Nov-08 16:17:00.0000 UT      
Step-size       : 1 minutes
*******************************************************************************
Target pole/equ : IAU_TITAN                       {West-longitude positive}
Target radii    : 2575.15, 2574.78, 2574.47 km    {Equator_a, b, pole_c}       
Center geodetic : 204.5278, 19.8260847, 4.21024   {E-lon(deg),Lat(deg),Alt(km)}
Center cylindric: 204.5278, 6006.35451, 2151.0229 {E-lon(deg),Dxy(km),Dz(km)}
Center pole/equ : ITRF93                          {East-longitude positive}
Center radii    : 6378.137, 6378.137, 6356.752 km {Equator_a, b, pole_c}       
Target primary  : Saturn
Vis. interferer : MOON (R_eq= 1737.400) km        {source: DE441}
Rel. light bend : Sun                             {source: DE441}
Rel. lght bnd GM: 1.3271E+11 km^3/s^2                                          
Atmos refraction: NO (AIRLESS)
RA format       : HMS
Time format     : CAL 
Calendar mode   : Mixed Julian/Gregorian
RTS-only print  : NO       
EOP file        : eop.241205.p250303                                           
EOP coverage    : DATA-BASED 1962-JAN-20 TO 2024-DEC-05. PREDICTS-> 2025-MAR-02
Units conversion: 1 au= 149597870.700 km, c= 299792.458 km/s, 1 day= 86400.0 s 
Table cut-offs 1: Elevation (-90.0deg=NO ),Airmass (>38.000=NO), Daylight (YES)
Table cut-offs 2: Solar elongation (  0.0,180.0=NO ),Local Hour Angle( 0.0=NO )
Table cut-offs 3: RA/DEC angular rate (     0.0=NO )                           
*******************************************************************************
 Date__(UT)__HR:MN     R.A._________(ICRF)_________DEC
******************************************************
$$SOE
 2018-Nov-08 10:57     18 23 07.292690 -22 47 09.80511
 2018-Nov-08 10:58     18 23 07.306081 -22 47 09.80066
 2018-Nov-08 10:59     18 23 07.319471 -22 47 09.79620
 2018-Nov-08 11:00     18 23 07.332863 -22 47 09.79175
 2018-Nov-08 11:01     18 23 07.346255 -22 47 09.78729
 2018-Nov-08 11:02     18 23 07.359648 -22 47 09.78283
 2018-Nov-08 11:03     18 23 07.373041 -22 47 09.77837
 2018-Nov-08 11:04     18 23 07.386435 -22 47 09.77391
 2018-Nov-08 11:05     18 23 07.399830 -22 47 09.76945
 2018-Nov-08 11:06     18 23 07.413225 -22 47 09.76499
 2018-Nov-08 11:07     18 23 07.426621 -22 47 09.76053
 2018-Nov-08 11:08     18 23 07.440017 -22 47 09.75607
 2018-Nov-08 11:09     18 23 07.453415 -22 47 09.75160
 2018-Nov-08 11:10     18 23 07.466812 -22 47 09.74714
 2018-Nov-08 11:11     18 23 07.480211 -22 47 09.74267
 2018-Nov-08 11:12     18 23 07.493610 -22 47 09.73821
 2018-Nov-08 11:13     18 23 07.507009 -22 47 09.73374
 2018-Nov-08 11:14     18 23 07.520409 -22 47 09.72927
 2018-Nov-08 11:15     18 23 07.533810 -22 47 09.72480
 2018-Nov-08 11:16     18 23 07.547211 -22 47 09.72033
 2018-Nov-08 11:17     18 23 07.560613 -22 47 09.71587
 2018-Nov-08 11:18     18 23 07.574016 -22 47 09.71139
 2018-Nov-08 11:19     18 23 07.587419 -22 47 09.70692
 2018-Nov-08 11:20     18 23 07.600822 -22 47 09.70245
 2018-Nov-08 11:21     18 23 07.614226 -22 47 09.69798
 2018-Nov-08 11:22     18 23 07.627631 -22 47 09.69351
 2018-Nov-08 11:23     18 23 07.641037 -22 47 09.68903
 2018-Nov-08 11:24     18 23 07.654442 -22 47 09.68456
 2018-Nov-08 11:25     18 23 07.667849 -22 47 09.68008
 2018-Nov-08 11:26     18 23 07.681256 -22 47 09.67561
 2018-Nov-08 11:27     18 23 07.694663 -22 47 09.67113
 2018-Nov-08 11:28     18 23 07.708071 -22 47 09.66666
 2018-Nov-08 11:29     18 23 07.721480 -22 47 09.66218
 2018-Nov-08 11:30     18 23 07.734889 -22 47 09.65770
 2018-Nov-08 11:31     18 23 07.748299 -22 47 09.65322
 2018-Nov-08 11:32     18 23 07.761709 -22 47 09.64875
 2018-Nov-08 11:33     18 23 07.775120 -22 47 09.64427
 2018-Nov-08 11:34     18 23 07.788531 -22 47 09.63979
 2018-Nov-08 11:35     18 23 07.801943 -22 47 09.63531
 2018-Nov-08 11:36     18 23 07.815355 -22 47 09.63083
 2018-Nov-08 11:37     18 23 07.828768 -22 47 09.62635
 2018-Nov-08 11:38     18 23 07.842181 -22 47 09.62187
 2018-Nov-08 11:39     18 23 07.855595 -22 47 09.61739
 2018-Nov-08 11:40     18 23 07.869009 -22 47 09.61290
 2018-Nov-08 11:41     18 23 07.882424 -22 47 09.60842
 2018-Nov-08 11:42     18 23 07.895839 -22 47 09.60394
 2018-Nov-08 11:43     18 23 07.909255 -22 47 09.59946
 2018-Nov-08 11:44     18 23 07.922671 -22 47 09.59497
 2018-Nov-08 11:45     18 23 07.936088 -22 47 09.59049
 2018-Nov-08 11:46     18 23 07.949505 -22 47 09.58601
 2018-Nov-08 11:47     18 23 07.962923 -22 47 09.58152
 2018-Nov-08 11:48     18 23 07.976341 -22 47 09.57704
 2018-Nov-08 11:49     18 23 07.989760 -22 47 09.57255
 2018-Nov-08 11:50     18 23 08.003179 -22 47 09.56807
 2018-Nov-08 11:51     18 23 08.016598 -22 47 09.56358
 2018-Nov-08 11:52     18 23 08.030018 -22 47 09.55910
 2018-Nov-08 11:53     18 23 08.043439 -22 47 09.55461
 2018-Nov-08 11:54     18 23 08.056860 -22 47 09.55013
 2018-Nov-08 11:55     18 23 08.070281 -22 47 09.54564
 2018-Nov-08 11:56     18 23 08.083703 -22 47 09.54116
 2018-Nov-08 11:57     18 23 08.097125 -22 47 09.53667
 2018-Nov-08 11:58     18 23 08.110547 -22 47 09.53218
 2018-Nov-08 11:59     18 23 08.123970 -22 47 09.52770
 2018-Nov-08 12:00     18 23 08.137394 -22 47 09.52321
 2018-Nov-08 12:01     18 23 08.150818 -22 47 09.51872
 2018-Nov-08 12:02     18 23 08.164242 -22 47 09.51424
 2018-Nov-08 12:03     18 23 08.177667 -22 47 09.50975
 2018-Nov-08 12:04     18 23 08.191092 -22 47 09.50526
 2018-Nov-08 12:05     18 23 08.204517 -22 47 09.50078
 2018-Nov-08 12:06     18 23 08.217943 -22 47 09.49629
 2018-Nov-08 12:07     18 23 08.231369 -22 47 09.49180
 2018-Nov-08 12:08     18 23 08.244796 -22 47 09.48731
 2018-Nov-08 12:09     18 23 08.258223 -22 47 09.48283
 2018-Nov-08 12:10     18 23 08.271650 -22 47 09.47834
 2018-Nov-08 12:11     18 23 08.285078 -22 47 09.47385
 2018-Nov-08 12:12     18 23 08.298506 -22 47 09.46936
 2018-Nov-08 12:13     18 23 08.311934 -22 47 09.46487
 2018-Nov-08 12:14     18 23 08.325363 -22 47 09.46039
 2018-Nov-08 12:15     18 23 08.338793 -22 47 09.45590
 2018-Nov-08 12:16     18 23 08.352222 -22 47 09.45141
 2018-Nov-08 12:17     18 23 08.365652 -22 47 09.44692
 2018-Nov-08 12:18     18 23 08.379082 -22 47 09.44244
 2018-Nov-08 12:19     18 23 08.392513 -22 47 09.43795
 2018-Nov-08 12:20     18 23 08.405944 -22 47 09.43346
 2018-Nov-08 12:21     18 23 08.419375 -22 47 09.42897
 2018-Nov-08 12:22     18 23 08.432807 -22 47 09.42448
 2018-Nov-08 12:23     18 23 08.446238 -22 47 09.42000
 2018-Nov-08 12:24     18 23 08.459671 -22 47 09.41551
 2018-Nov-08 12:25     18 23 08.473103 -22 47 09.41102
 2018-Nov-08 12:26     18 23 08.486536 -22 47 09.40653
 2018-Nov-08 12:27     18 23 08.499969 -22 47 09.40205
 2018-Nov-08 12:28     18 23 08.513403 -22 47 09.39756
 2018-Nov-08 12:29     18 23 08.526836 -22 47 09.39307
 2018-Nov-08 12:30     18 23 08.540270 -22 47 09.38859
 2018-Nov-08 12:31     18 23 08.553705 -22 47 09.38410
 2018-Nov-08 12:32     18 23 08.567139 -22 47 09.37961
 2018-Nov-08 12:33     18 23 08.580574 -22 47 09.37513
 2018-Nov-08 12:34     18 23 08.594009 -22 47 09.37064
 2018-Nov-08 12:35     18 23 08.607445 -22 47 09.36615
 2018-Nov-08 12:36     18 23 08.620881 -22 47 09.36167
 2018-Nov-08 12:37     18 23 08.634316 -22 47 09.35718
 2018-Nov-08 12:38     18 23 08.647753 -22 47 09.35270
 2018-Nov-08 12:39     18 23 08.661189 -22 47 09.34821
 2018-Nov-08 12:40     18 23 08.674626 -22 47 09.34373
 2018-Nov-08 12:41     18 23 08.688063 -22 47 09.33924
 2018-Nov-08 12:42     18 23 08.701500 -22 47 09.33475
 2018-Nov-08 12:43     18 23 08.714938 -22 47 09.33027
 2018-Nov-08 12:44     18 23 08.728375 -22 47 09.32579
 2018-Nov-08 12:45     18 23 08.741813 -22 47 09.32130
 2018-Nov-08 12:46     18 23 08.755251 -22 47 09.31682
 2018-Nov-08 12:47     18 23 08.768690 -22 47 09.31233
 2018-Nov-08 12:48     18 23 08.782128 -22 47 09.30785
 2018-Nov-08 12:49     18 23 08.795567 -22 47 09.30337
 2018-Nov-08 12:50     18 23 08.809006 -22 47 09.29888
 2018-Nov-08 12:51     18 23 08.822445 -22 47 09.29440
 2018-Nov-08 12:52     18 23 08.835885 -22 47 09.28992
 2018-Nov-08 12:53     18 23 08.849324 -22 47 09.28543
 2018-Nov-08 12:54     18 23 08.862764 -22 47 09.28095
 2018-Nov-08 12:55     18 23 08.876204 -22 47 09.27647
 2018-Nov-08 12:56     18 23 08.889644 -22 47 09.27199
 2018-Nov-08 12:57     18 23 08.903084 -22 47 09.26751
 2018-Nov-08 12:58     18 23 08.916525 -22 47 09.26302
 2018-Nov-08 12:59     18 23 08.929965 -22 47 09.25854
 2018-Nov-08 13:00     18 23 08.943406 -22 47 09.25406
 2018-Nov-08 13:01     18 23 08.956847 -22 47 09.24958
 2018-Nov-08 13:02     18 23 08.970288 -22 47 09.24510
 2018-Nov-08 13:03     18 23 08.983729 -22 47 09.24062
 2018-Nov-08 13:04     18 23 08.997171 -22 47 09.23614
 2018-Nov-08 13:05     18 23 09.010612 -22 47 09.23166
 2018-Nov-08 13:06     18 23 09.024054 -22 47 09.22718
 2018-Nov-08 13:07     18 23 09.037496 -22 47 09.22271
 2018-Nov-08 13:08     18 23 09.050938 -22 47 09.21823
 2018-Nov-08 13:09     18 23 09.064380 -22 47 09.21375
 2018-Nov-08 13:10     18 23 09.077822 -22 47 09.20927
 2018-Nov-08 13:11     18 23 09.091264 -22 47 09.20479
 2018-Nov-08 13:12     18 23 09.104707 -22 47 09.20032
 2018-Nov-08 13:13     18 23 09.118149 -22 47 09.19584
 2018-Nov-08 13:14     18 23 09.131592 -22 47 09.19136
 2018-Nov-08 13:15     18 23 09.145035 -22 47 09.18689
 2018-Nov-08 13:16     18 23 09.158477 -22 47 09.18241
 2018-Nov-08 13:17     18 23 09.171920 -22 47 09.17794
